388P/Gibbs,e,23.8589,37.0530,42.4120,5.248309,0.0819738,0.61800259,21.8381,04/15.0/2020,2000,g 13.0,4.0
# From MPC118845
389P/Siding Spring,e,160.0680,218.8441,249.2988,5.629994,0.0737806,0.70456709,7.9478,04/15.0/2020,2000,g 16.0,4.0
# From MPEC 2020-C98
390P/Gibbs,e,18.5591,152.2808,232.3371,5.797505,0.0706061,0.70680803,1.6785,04/15.0/2020,2000,g 12.0,4.0
# From MPEC 2020-AA5
391P/Kowalski,e,21.2760,124.7326,186.5874,4.674995,0.0975062,0.12080468,73.9880,04/15.0/2020,2000,g  8.0,4.0
# From MPEC 2020-C98
392P/LINEAR,e,4.9294,24.8878,71.9956,6.150318,0.0646186,0.68290470,0.9146,04/15.0/2020,2000,g 14.5,4.0
# From MPC118845
393P/Spacewatch-Hill,e,16.7970,36.4211,327.9764,4.782553,0.0942355,0.12001426,16.4458,04/15.0/2020,2000,g 11.0,4.0
# From MPC107687
1I/`Oumuamua,h,09/09.4886/2017,122.6778,24.5997,241.6845,1.199252,0.255240,2000,23.0,2.0
# From MPEC 2020-C98
2I/Borisov,h,12/08.5547/2019,44.0527,308.1482,209.1252,3.356773,2.006564,2000,11.0,4.0
